     3.02           N: GNSS NAV DATA    M: Mixed            RINEX VERSION / TYPE
CONVBIN 2.4.2                           20180222 105020 UTC PGM / RUN BY / DATE 
log: MSM7.log                                               COMMENT             
format: RTCM 3, station ID: 31                              COMMENT             
                                                            END OF HEADER       
E 3 2017 10 23 13 10  0  .449139624834E-04 -.461852778244E-11  .000000000000E+00
      .950000000000E+02 -.252500000000E+02  .340514183783E-08  .127937251678E+01
     -.115670263767E-05  .210210098885E-03  .827200710773E-05  .544062060928E+04
      .133800000000E+06  .111758708954E-07  .276178276962E+01  .298023223877E-07
      .952846591645E+00  .158281250000E+03 -.305367149939E-01 -.561130516195E-08
     -.591453207829E-09  .200000000000E+01  .197200000000E+04  .000000000000E+00
      .327670000000E+05  .000000000000E+00 -.186264514923E-08  .000000000000E+00
      .104160890000E+08  .000000000000E+00
E 5 2017 10 23 13 10  0  .395057664718E-03 -.736122274247E-11  .000000000000E+00
      .950000000000E+02 -.293437500000E+02  .335942564785E-08 -.516186869941E-01
     -.143609941006E-05  .196001492441E-04  .863522291183E-05  .544062099838E+04
      .133800000000E+06  .186264514923E-08  .276176276714E+01  .000000000000E+00
      .952860176302E+00  .154093750000E+03  .208669496530E+01 -.557594654627E-08
     -.616811406957E-09  .200000000000E+01  .197200000000E+04  .000000000000E+00
      .327670000000E+05  .000000000000E+00 -.139698386192E-08  .000000000000E+00
      .104160900000E+08  .000000000000E+00
E 8 2017 10 23 13 10  0  .671367411269E-02 -.724753590475E-11  .000000000000E+00
      .950000000000E+02 -.293750000000E+02  .340085594502E-08  .750407393891E+00
     -.138580799103E-05  .195641885512E-03  .775232911110E-05  .544061906052E+04
      .133800000000E+06  .353902578354E-07  .275119745428E+01  .000000000000E+00
      .958800325905E+00  .169500000000E+03 -.283020219008E+00 -.561130516195E-08
     -.597882047044E-09  .200000000000E+01  .197200000000E+04  .000000000000E+00
      .327670000000E+05  .000000000000E+00 -.861473381519E-08  .000000000000E+00
      .104160910000E+08  .000000000000E+00
E22 2017 10 23 13 10  0  .642338267062E-02 -.329407612298E-10  .000000000000E+00
      .950000000000E+02 -.642500000000E+02  .283976114459E-08  .985587785207E+00
     -.295788049698E-05  .417912960984E-03  .125020742416E-04  .544060554695E+04
      .133800000000E+06 -.260770320892E-07  .660410244829E+00  .558793544769E-08
      .972551631502E+00  .781875000000E+02  .233259544183E+01 -.530057793320E-08
      .386444668400E-09  .200000000000E+01  .197200000000E+04  .000000000000E+00
      .327670000000E+05  .000000000000E+00 -.791624188423E-08  .000000000000E+00
      .104160920000E+08  .000000000000E+00
E26 2017 10 23 12 50  0  .669668364571E-02 -.430446789323E-10  .000000000000E+00
      .930000000000E+02 -.635000000000E+02  .284904724568E-08 -.209728596116E+01
     -.297091901302E-05  .279933563434E-03  .109691172838E-04  .544060536957E+04
      .132600000000E+06  .130385160446E-07  .660214939414E+00 -.260770320892E-07
      .972438710318E+00  .111906250000E+03  .294104751928E+01 -.529950646000E-08
      .345728686702E-09  .200000000000E+01  .197200000000E+04  .000000000000E+00
      .327670000000E+05  .000000000000E+00  .931322574615E-09  .000000000000E+00
      .104162470000E+08  .000000000000E+00
R 3 2018  2 19 13 45  0  .114010646939E-03  .909494701773E-12  .135030000000E+06
     -.556867968750E+04 -.828151702881E+00 -.186264514923E-08  .000000000000E+00
      .211322773438E+05  .159965610504E+01 -.931322574615E-09  .500000000000E+01
      .131574887695E+05 -.293055820465E+01  .000000000000E+00  .000000000000E+00
R 4 2018  2 19 13 45  0  .235512852669E-03  .909494701773E-12  .135030000000E+06
      .710235253906E+04 -.159775829315E+01 -.931322574615E-09  .000000000000E+00
      .916326904297E+04  .266743278503E+01 -.931322574615E-09  .600000000000E+01
      .227306669922E+05 -.577602386475E+00 -.186264514923E-08  .000000000000E+00
R 5 2018  2 19 13 45  0 -.183344818652E-03 -.545696821064E-11  .135030000000E+06
      .151777573242E+05 -.139950752258E+01  .000000000000E+00  .000000000000E+00
     -.748874511719E+04  .220815467834E+01  .000000000000E+00  .100000000000E+01
      .190694882812E+05  .198048019409E+01 -.279396772385E-08  .000000000000E+00
R12 2018  2 19 13 45  0 -.219279900193E-04  .000000000000E+00  .135030000000E+06
     -.141279345703E+05 -.142421436310E+01 -.372529029846E-08  .000000000000E+00
     -.597446679688E+04 -.240369129181E+01  .000000000000E+00 -.100000000000E+01
      .204018730469E+05 -.168390846252E+01  .000000000000E+00  .000000000000E+00
R13 2018  2 19 13 45  0 -.377185642719E-05  .000000000000E+00  .135030000000E+06
     -.431723681641E+04 -.136051464081E+01 -.279396772385E-08  .000000000000E+00
      .129842290039E+05 -.261865615845E+01 -.931322574615E-09 -.200000000000E+01
      .215198969727E+05  .130533409119E+01 -.931322574615E-09  .000000000000E+00
R14 2018  2 19 13 45  0  .218460336328E-04  .000000000000E+00  .135030000000E+06
      .645556005859E+04 -.511391639709E+00  .000000000000E+00  .000000000000E+00
      .224859458008E+05 -.130665016174E+01 -.186264514923E-08 -.700000000000E+01
      .102072456055E+05  .320645046234E+01 -.931322574615E-09  .000000000000E+00
R19 2018  2 19 13 45  0 -.300016254187E-04 -.181898940355E-11  .135030000000E+06
      .254736567383E+05  .277166366577E-01  .372529029846E-08  .000000000000E+00
      .122887304688E+04 -.224343299866E+00  .000000000000E+00  .300000000000E+01
      .116488281250E+03 -.360024070740E+01 -.186264514923E-08  .000000000000E+00
R20 2018  2 19 13 45  0 -.312634743750E-03 -.909494701773E-12  .135030000000E+06
      .175735200195E+05  .235759830475E+01  .931322574615E-09  .000000000000E+00
     -.689796679688E+04 -.336513519287E-01  .000000000000E+00  .200000000000E+01
      .171787641602E+05 -.242180633545E+01 -.279396772385E-08  .000000000000E+00
R21 2018  2 19 13 45  0  .139673240483E-03  .181898940355E-11  .135030000000E+06
     -.775024414062E+03  .317124938965E+01 -.186264514923E-08  .000000000000E+00
     -.106755678711E+05  .111284255981E+00  .000000000000E+00  .400000000000E+01
      .231515014648E+05  .154485702515E+00 -.186264514923E-08  .000000000000E+00
E 3 2017 10 23 13 20  0  .449112267233E-04 -.460431692773E-11  .000000000000E+00
      .960000000000E+02 -.253125000000E+02  .340585615329E-08  .135356260925E+01
     -.116229057312E-05  .210205325857E-03  .829435884953E-05  .544062069321E+04
      .134400000000E+06  .931322574615E-08  .276177939175E+01  .335276126862E-07
      .952846231767E+00  .157968750000E+03 -.303415470929E-01 -.561130516195E-08
     -.589667419158E-09  .200000000000E+01  .197200000000E+04  .000000000000E+00
      .327670000000E+05  .000000000000E+00 -.186264514923E-08  .000000000000E+00
      .104166890000E+08  .000000000000E+00
E 5 2017 10 23 13 20  0  .395053066313E-03 -.737543359719E-11  .000000000000E+00
      .960000000000E+02 -.301562500000E+02  .336228290972E-08  .208597679102E-01
     -.149197876453E-05  .197014305741E-04  .862590968609E-05  .544062121391E+04
      .134400000000E+06  .372529029846E-08  .276175944193E+01  .372529029846E-08
      .952859800333E+00  .154218750000E+03  .208860172395E+01 -.557844665041E-08
     -.618597195628E-09  .200000000000E+01  .197200000000E+04  .000000000000E+00
      .327670000000E+05  .000000000000E+00 -.139698386192E-08  .000000000000E+00
      .104166900000E+08  .000000000000E+00
E 8 2017 10 23 13 20  0  .671366974711E-02 -.724753590475E-11  .000000000000E+00
      .960000000000E+02 -.285312500000E+02  .340121310275E-08  .824266337293E+00
     -.133179128170E-05  .195686705410E-03  .776350498199E-05  .544061928749E+04
      .134400000000E+06  .335276126862E-07  .275119408811E+01  .186264514923E-08
      .958799968953E+00  .169343750000E+03 -.282493825973E+00 -.561094800422E-08
     -.598239204778E-09  .200000000000E+01  .197200000000E+04  .000000000000E+00
      .327670000000E+05  .000000000000E+00 -.861473381519E-08  .000000000000E+00
      .104166910000E+08  .000000000000E+00
E26 2017 10 23 13 20  0  .669660593849E-02 -.430588897871E-10  .000000000000E+00
      .960000000000E+02 -.649375000000E+02  .285547608490E-08 -.187548866627E+01
     -.304542481899E-05  .279954285361E-03  .108312815428E-04  .544060460281E+04
      .134400000000E+06  .242143869400E-07  .660205345597E+00 -.130385160446E-07
      .972439301337E+00  .114468750000E+03  .294240672524E+01 -.530236372188E-08
      .355729103259E-09  .200000000000E+01  .197200000000E+04  .000000000000E+00
      .327670000000E+05  .000000000000E+00  .931322574615E-09  .000000000000E+00
      .104170190000E+08  .000000000000E+00
E 3 2017 10 23 13 30  0  .449084327556E-04 -.460431692773E-11  .000000000000E+00
      .970000000000E+02 -.254062500000E+02  .340657046876E-08  .142777722461E+01
     -.116787850857E-05  .210197991692E-03  .831484794617E-05  .544062076569E+04
      .135000000000E+06  .931322574615E-08  .276177601387E+01  .353902578354E-07
      .952845874815E+00  .157718750000E+03 -.301709108653E-01 -.561094800422E-08
     -.587881630487E-09  .200000000000E+01  .197200000000E+04  .000000000000E+00
      .327670000000E+05  .000000000000E+00 -.186264514923E-08  .000000000000E+00
      .104172880000E+08  .000000000000E+00
